#aV2023  5  6  0  0  0.00000000     288 DD+AD WGS84 FIT  NGA
## 2260 518400.00000000   300.00000000 60070 0.0000000000000
+   32     1  2  3  4  5  6  7  8  9 10 11 12 13 14 15 16 17
+         18 19 20 21 22 23 24 25 26 27 28 29 30 31 32  0  0
+          0  0  0  0  0  0  0  0  0  0  0  0  0  0  0  0  0
+          0  0  0  0  0  0  0  0  0  0  0  0  0  0  0  0  0
+          0  0  0  0  0  0  0  0  0  0  0  0  0  0  0  0  0
++         2  2  2  2  2  2  2  2  2  2  2  2  2  2  2  2  2
++         2  2  2  2  2  2  2  2  2  2  2  2  2  2  2  0  0
++         0  0  0  0  0  0  0  0  0  0  0  0  0  0  0  0  0
++         0  0  0  0  0  0  0  0  0  0  0  0  0  0  0  0  0
++         0  0  0  0  0  0  0  0  0  0  0  0  0  0  0  0  0
%c cc cc ccc ccc cccc cccc cccc cccc ccccc ccccc ccccc ccccc
%c cc cc ccc ccc cccc cccc cccc cccc ccccc ccccc ccccc ccccc
%f  0.0000000  0.000000000  0.00000000000  0.000000000000000
%f  0.0000000  0.000000000  0.00000000000  0.000000000000000
%i    0    0    0    0      0      0      0      0         0
%i    0    0    0    0      0      0      0      0         0
/*      NGA, ST. LOUIS,MO.                                  
/*   EPHEMERIS COMPUTED FROM 2 DAYS OF DATA                 
/*   EPOCHA v8 SMOOTHER                                     
/*   G2139 IERS2010 SATIGS SATAPC                           
*  2023  5  6 20  5  0.00000000
P  1  22122.931668  14901.738536  -2415.105591    187.353528                    
V  1  -3045.602205     10.104981 -31964.951431     -0.029625                    
P  2 -11437.191689  10630.224383 -20988.084757   -598.854610                    
V  2 -24899.315099 -12401.725032   7330.638417      0.038608                    
P  3  12522.752577  14309.296286  18466.462793   -310.684132                    
V  3  -1013.452254  23632.365612 -17385.630936      0.105793                    
P  4  18592.690830   4557.082574  18471.664215     34.783142                    
V  4 -19882.531291  12392.060632  16855.458755      0.096108                    
P  5  -5478.749747 -25271.837778  -5952.729270   -126.182660                    
V  5   2234.534387  -7488.436291  30737.947392     -0.014566                    
P  6  10412.022183 -10706.234395  22033.138657    588.118646                    
V  6  23897.041697  14086.338390  -4364.227012      0.001068                    
P  7  23861.921983   4772.322041 -10750.379339    184.588045                    
V  7  11090.431111   9179.044468  27048.057522     -0.091236                    
P  8   8086.948053  12981.602963 -21783.668367   -121.181718                    
V  8 -23423.886266  14412.069069    279.874289     -0.016668                    
P  9  23500.302728  -5220.296533  11197.785871   -164.601803                    
V  9 -10842.923598   9697.723305  27061.333034      0.082610                    
P 10 -11235.013399  16740.660339 -16947.953221    -35.838069                    
V 10  -1884.748285 -21927.719623 -20498.485668     -0.015889                    
P 11  -4468.641918 -18255.650694  18790.080458   -187.435821                    
V 11  20813.436066  11655.073922  16243.810328     -0.135303                    
P 12 -10525.132313 -17490.852055  16757.888352   -372.795133                    
V 12   3063.685237 -21624.259136 -20223.937196     -0.046733                    
P 13    797.163636 -16114.812954 -21235.991568    516.201080                    
V 13  24822.946673  -9513.070634   8418.167339      0.054114                    
P 14  13421.336319 -13721.011845 -18286.789236     48.105121                    
V 14   1226.651455  23365.249151 -16766.008008      0.125544                    
P 15 -10278.707220 -12342.645041 -21613.461260     37.155411                    
V 15  20791.236570 -16422.301123   -254.974228      0.034341                    
P 16    308.300923  26119.368103  -3463.292949   -503.229871                    
V 16  -3313.697002   3826.973466  31754.939478      0.031389                    
P 17  22437.259569 -14000.500824   3437.641065    713.776600                    
V 17   4419.427896    271.778737 -31589.798385      0.014729                    
P 18 -22320.201930  -1847.780348 -14396.213236   -255.250113                    
V 18 -14779.035226 -10743.728528  24146.199415     -0.160578                    
P 19  17552.345670 -16203.021342  11059.954564    313.364973                    
V 19  14166.123260  -3805.789157 -27781.034540      0.051040                    
P 20  -1583.481734 -26288.113771   4230.217396    435.023252                    
V 20   3860.452250   4704.308414  30744.326584     -0.020869                    
P 21  18833.425768  16236.337014  -9894.548018    153.949248                    
V 21 -12727.543070  -3672.551948 -27809.231965     -0.001743                    
P 22 -14100.535331  17742.868950  14165.315332    476.840903                    
V 22 -16495.810394   5600.218936 -24368.068050      0.065038                    
P 23 -14653.188708   4050.641091 -21759.676956     22.125828                    
V 23  -1412.150769 -27584.997028  -4329.386583      0.029479                    
P 24 -20916.497450 -15306.724156  -7088.734762   -179.038135                    
V 24   8973.408518    743.851299 -29157.852915     -0.140824                    
P 25 -14978.325131  -5555.138835  20945.575073    440.932816                    
V 25     35.045258 -27312.143851  -6851.028248      0.027412                    
P 26  -5346.514782  23926.190440   9660.780558    241.103449                    
V 26  -4488.935449 -12287.169881  27954.483888     -0.004275                    
P 27  -3951.224873  17850.290874 -19364.148574     43.113381                    
V 27 -21509.130744  11134.143961  15250.305528     -0.081738                    
P 28 -12115.486767  10370.516434  21214.416750     74.892819                    
V 28 -23639.402095 -13043.661057  -7120.663230      0.041678                    
P 29 -22683.350518    712.278528  13815.750499   -598.434884                    
V 29  15005.017591  -9313.915726  24930.176140     -0.015191                    
P 30  18079.872810  -5430.938587 -18671.449044   -518.642547                    
V 30  19896.225948  13408.668688  15009.949726      0.020643                    
P 31  -2849.632179  15647.978455  21038.545956   -215.559762                    
V 31 -23804.420406 -13199.676330   6972.865096     -0.008275                    
P 32 -20156.642734  16373.471525   5227.442953   -470.022813                    
V 32  -7040.309892    804.119771 -30912.147592     -0.094703                    
EOF
